{"type": "FeatureCollection", "features": [ {"type": "Feature", "properties": {"norad_id": 36692, "name": "FENGYUN 1C DEB", "group": "fengyun-1c-debris", "lat": 32.066565299471954, "lon": -116.6447014712056, "alt_km": 831.7993370042013, "timestamp": "2025-12-09T20:37:09.575983+00:00", "meta": {"OBJECT_NAME": "FENGYUN 1C DEB", "OBJECT_ID": "1999-025DZN", "EPOCH": "2025-12-04T12:56:52.897632", "MEAN_MOTION": 13.93448865, "ECCENTRICITY": 0.0115856, "INCLINATION": 99.9932, "RA_OF_ASC_NODE": 243.9547, "ARG_OF_PERICENTER": 34.8482, "MEAN_ANOMALY": 326.0192, "EPHEMERIS_TYPE": 0, "CLASSIFICATION_TYPE": "U", "NORAD_CAT_ID": 36692, "ELEMENT_SET_NO": 999, "REV_AT_EPOCH": 59691, "BSTAR": 0.0009556, "MEAN_MOTION_DOT": 1.272e-05, "MEAN_MOTION_DDOT": 0}, "tle": {"line1": "1 36692U 99025DZN 25338.53950113  .00001272  00000+0  95560-3 0  9998", "line2": "2 36692  99.9932 243.9547 0115856  34.8482 326.0192 13.93448865596912"}}, "geometry": {"type": "Point", "coordinates": [-116.6447014712056, 32.066565299471954]}}, {"type": "Feature", "properties": {"norad_id": 36695, "name": "FENGYUN 1C DEB", "group": "fengyun-1c-debris", "lat": 68.92344386669383, "lon": 167.318745912893, "alt_km": 579.1432790962654, "timestamp": "2025-12-09T20:37:09.575993+00:00", "meta": {"OBJECT_NAME": "FENGYUN 1C DEB", "OBJECT_ID": "1999-025DZR", "EPOCH": "2025-12-07T16:33:08.644032", "MEAN_MOTION": 14.43734383, "ECCENTRICITY": 0.02568321, "INCLINATION": 98.2205, "RA_OF_ASC_NODE": 323.1905, "ARG_OF_PERICENTER": 145.5781, "MEAN_ANOMALY": 216.2351, "EPHEMERIS_TYPE": 0, "CLASSIFICATION_TYPE": "U", "NORAD_CAT_ID": 36695, "ELEMENT_SET_NO": 999, "REV_AT_EPOCH": 89495, "BSTAR": 0.00027696814, "MEAN_MOTION_DOT": 1.356e-05, "MEAN_MOTION_DDOT": 0}, "tle": {"line1": "1 36695U 99025DZR 25341.68968338  .00001356  00000+0  27697-3 0  9998", "line2": "2 36695  98.2205 323.1905 0256832 145.5781 216.2351 14.43734383894952"}}, "geometry": {"type": "Point", "coordinates": [167.318745912893, 68.92344386669383]}}, {"type": "Feature", "properties": {"norad_id": 36696, "name": "FENGYUN 1C DEB", "group": "fengyun-1c-debris", "lat": 45.588182365491356, "lon": -16.588773893212473, "alt_km": 751.387744821498, "timestamp": "2025-12-09T20:37:09.576003+00:00", "meta": {"OBJECT_NAME": "FENGYUN 1C DEB", "OBJECT_ID": "1999-025DZS", "EPOCH": "2025-12-09T07:03:23.734944", "MEAN_MOTION": 14.39130794, "ECCENTRICITY": 0.0023, "INCLINATION": 98.9925, "RA_OF_ASC_NODE": 352.121, "ARG_OF_PERICENTER": 339.2487, "MEAN_ANOMALY": 20.7763, "EPHEMERIS_TYPE": 0, "CLASSIFICATION_TYPE": "U", "NORAD_CAT_ID": 36696, "ELEMENT_SET_NO": 999, "REV_AT_EPOCH": 64346, "BSTAR": 0.0028391, "MEAN_MOTION_DOT": 8.775e-05, "MEAN_MOTION_DDOT": 0}, "tle": {"line1": "1 36696U 99025DZS 25343.29402471  .00008775  00000+0  28391-2 0  9992", "line2": "2 36696  98.9925 352.1210 0023000 339.2487  20.7763 14.39130794643468"}}, "geometry": {"type": "Point", "coordinates": [-16.588773893212473, 45.588182365491356]}}, {"type": "Feature", "properties": {"norad_id": 36699, "name": "FENGYUN 1C DEB", "group": "fengyun-1c-debris", "lat": -55.59834814917932, "lon": 145.73123086985402, "alt_km": 826.7600776539421, "timestamp": "2025-12-09T20:37:09.576014+00:00", "meta": {"OBJECT_NAME": "FENGYUN 1C DEB", "OBJECT_ID": "1999-025DZV", "EPOCH": "2025-12-08T06:25:41.496960", "MEAN_MOTION": 14.24286073, "ECCENTRICITY": 0.00944856, "INCLINATION": 98.5588, "RA_OF_ASC_NODE": 336.8859, "ARG_OF_PERICENTER": 143.0891, "MEAN_ANOMALY": 217.684, "EPHEMERIS_TYPE": 0, "CLASSIFICATION_TYPE": "U", "NORAD_CAT_ID": 36699, "ELEMENT_SET_NO": 999, "REV_AT_EPOCH": 73263, "BSTAR": 0.00040885674, "MEAN_MOTION_DOT": 9.47e-06, "MEAN_MOTION_DDOT": 0}, "tle": {"line1": "1 36699U 99025DZV 25342.26784140  .00000947  00000+0  40886-3 0  9994", "line2": "2 36699  98.5588 336.8859 0094485 143.0891 217.6840 14.24286073732632"}}, "geometry": {"type": "Point", "coordinates": [145.73123086985402, -55.59834814917932]}}, {"type": "Feature", "properties": {"norad_id": 36701, "name": "FENGYUN 1C DEB", "group": "fengyun-1c-debris", "lat": 20.846185527990926, "lon": -67.67858628866493, "alt_km": 1090.9455228768165, "timestamp": "2025-12-09T20:37:09.576024+00:00", "meta": {"OBJECT_NAME": "FENGYUN 1C DEB", "OBJECT_ID": "1999-025DZX", "EPOCH": "2025-12-09T15:15:38.058624", "MEAN_MOTION": 13.71305696, "ECCENTRICITY": 0.02601384, "INCLINATION": 102.7439, "RA_OF_ASC_NODE": 296.9694, "ARG_OF_PERICENTER": 260.5557, "MEAN_ANOMALY": 96.6087, "EPHEMERIS_TYPE": 0, "CLASSIFICATION_TYPE": "U", "NORAD_CAT_ID": 36701, "ELEMENT_SET_NO": 999, "REV_AT_EPOCH": 61096, "BSTAR": 0.0037365194, "MEAN_MOTION_DOT": 4.196e-05, "MEAN_MOTION_DDOT": 0}, "tle": {"line1": "1 36701U 99025DZX 25343.63585716  .00004196  00000+0  37365-2 0  9995", "line2": "2 36701 102.7439 296.9694 0260138 260.5557  96.6087 13.71305696610969"}}, "geometry": {"type": "Point", "coordinates": [-67.67858628866493, 20.846185527990926]}}, {"type": "Feature", "properties": {"norad_id": 36707, "name": "FENGYUN 1C DEB", "group": "fengyun-1c-debris", "lat": -15.118855792151678, "lon": -152.36933316342677, "alt_km": 823.9532967217283, "timestamp": "2025-12-09T20:37:09.576034+00:00", "meta": {"OBJECT_NAME": "FENGYUN 1C DEB", "OBJECT_ID": "1999-025EAD", "EPOCH": "2025-12-09T09:32:23.366688", "MEAN_MOTION": 14.17293777, "ECCENTRICITY": 0.00499529, "INCLINATION": 98.7523, "RA_OF_ASC_NODE": 29.5616, "ARG_OF_PERICENTER": 131.2163, "MEAN_ANOMALY": 229.3333, "EPHEMERIS_TYPE": 0, "CLASSIFICATION_TYPE": "U", "NORAD_CAT_ID": 36707, "ELEMENT_SET_NO": 999, "REV_AT_EPOCH": 64032, "BSTAR": 0.0012730756, "MEAN_MOTION_DOT": 2.562e-05, "MEAN_MOTION_DDOT": 0}, "tle": {"line1": "1 36707U 99025EAD 25343.39749267  .00002562  00000+0  12731-2 0  9992", "line2": "2 36707  98.7523  29.5616 0049952 131.2163 229.3333 14.17293777640322"}}, "geometry": {"type": "Point", "coordinates": [-152.36933316342677, -15.118855792151678]}}, {"type": "Feature", "properties": {"norad_id": 36710, "name": "FENGYUN 1C DEB", "group": "fengyun-1c-debris", "lat": 53.16481987703524, "lon": -127.65328491351926, "alt_km": 700.1473543962356, "timestamp": "2025-12-09T20:37:09.576045+00:00", "meta": {"OBJECT_NAME": "FENGYUN 1C DEB", "OBJECT_ID": "1999-025EAG", "EPOCH": "2025-12-09T10:05:53.606976", "MEAN_MOTION": 14.49787027, "ECCENTRICITY": 0.00678732, "INCLINATION": 98.3799, "RA_OF_ASC_NODE": 40.5617, "ARG_OF_PERICENTER": 191.5881, "MEAN_ANOMALY": 168.3755, "EPHEMERIS_TYPE": 0, "CLASSIFICATION_TYPE": "U", "NORAD_CAT_ID": 36710, "ELEMENT_SET_NO": 999, "REV_AT_EPOCH": 64905, "BSTAR": 0.0022522303, "MEAN_MOTION_DOT": 8.905e-05, "MEAN_MOTION_DDOT": 0}, "tle": {"line1": "1 36710U 99025EAG 25343.42075934  .00008905  00000+0  22522-2 0  9999", "line2": "2 36710  98.3799  40.5617 0067873 191.5881 168.3755 14.49787027649059"}}, "geometry": {"type": "Point", "coordinates": [-127.65328491351926, 53.16481987703524]}}, {"type": "Feature", "properties": {"norad_id": 36711, "name": "FENGYUN 1C DEB", "group": "fengyun-1c-debris", "lat": 72.60689067996888, "lon": -35.18179121425211, "alt_km": 798.1251663203111, "timestamp": "2025-12-09T20:37:09.576055+00:00", "meta": {"OBJECT_NAME": "FENGYUN 1C DEB", "OBJECT_ID": "1999-025EAH", "EPOCH": "2025-11-29T18:49:32.545344", "MEAN_MOTION": 14.42080972, "ECCENTRICITY": 0.01000486, "INCLINATION": 100.8061, "RA_OF_ASC_NODE": 349.6584, "ARG_OF_PERICENTER": 244.1532, "MEAN_ANOMALY": 114.9305, "EPHEMERIS_TYPE": 0, "CLASSIFICATION_TYPE": "U", "NORAD_CAT_ID": 36711, "ELEMENT_SET_NO": 999, "REV_AT_EPOCH": 64124, "BSTAR": 0.0024295961, "MEAN_MOTION_DOT": 8.419e-05, "MEAN_MOTION_DDOT": 0}, "tle": {"line1": "1 36711U 99025EAH 25333.78440446  .00008419  00000+0  24296-2 0  9992", "line2": "2 36711 100.8061 349.6584 0100048 244.1532 114.9305 14.42080972641246"}}, "geometry": {"type": "Point", "coordinates": [-35.18179121425211, 72.60689067996888]}}, {"type": "Feature", "properties": {"norad_id": 36716, "name": "FENGYUN 1C DEB", "group": "fengyun-1c-debris", "lat": -38.37646315584145, "lon": -89.66553311569315, "alt_km": 928.5149213403283, "timestamp": "2025-12-09T20:37:09.576065+00:00", "meta": {"OBJECT_NAME": "FENGYUN 1C DEB", "OBJECT_ID": "1999-025EAN", "EPOCH": "2025-12-09T12:09:36.809856", "MEAN_MOTION": 13.88411171, "ECCENTRICITY": 0.01480414, "INCLINATION": 99.2281, "RA_OF_ASC_NODE": 262.5889, "ARG_OF_PERICENTER": 237.6046, "MEAN_ANOMALY": 121.0715, "EPHEMERIS_TYPE": 0, "CLASSIFICATION_TYPE": "U", "NORAD_CAT_ID": 36716, "ELEMENT_SET_NO": 999, "REV_AT_EPOCH": 62886, "BSTAR": 0.00040385999, "MEAN_MOTION_DOT": 4.83e-06, "MEAN_MOTION_DDOT": 0}, "tle": {"line1": "1 36716U 99025EAN 25343.50667604  .00000483  00000+0  40386-3 0  9997", "line2": "2 36716  99.2281 262.5889 0148041 237.6046 121.0715 13.88411171628864"}}, "geometry": {"type": "Point", "coordinates": [-89.66553311569315, -38.37646315584145]}}, {"type": "Feature", "properties": {"norad_id": 36724, "name": "FENGYUN 1C DEB", "group": "fengyun-1c-debris", "lat": 15.160683018694673, "lon": -162.0404937147216, "alt_km": 752.0619626795688, "timestamp": "2025-12-09T20:37:09.576075+00:00", "meta": {"OBJECT_NAME": "FENGYUN 1C DEB", "OBJECT_ID": "1999-025EAW", "EPOCH": "2025-12-09T13:49:21.847584", "MEAN_MOTION": 14.25238593, "ECCENTRICITY": 0.01036701, "INCLINATION": 99.4681, "RA_OF_ASC_NODE": 15.0625, "ARG_OF_PERICENTER": 206.572, "MEAN_ANOMALY": 306.5075, "EPHEMERIS_TYPE": 0, "CLASSIFICATION_TYPE": "U", "NORAD_CAT_ID": 36724, "ELEMENT_SET_NO": 999, "REV_AT_EPOCH": 57427, "BSTAR": 0.0027974656, "MEAN_MOTION_DOT": 6.914e-05, "MEAN_MOTION_DDOT": 0}, "tle": {"line1": "1 36724U 99025EAW 25343.57594731  .00006914  00000+0  27975-2 0  9996", "line2": "2 36724  99.4681  15.0625 0103670 206.5720 306.5075 14.25238593574272"}}, "geometry": {"type": "Point", "coordinates": [-162.0404937147216, 15.160683018694673]}}]}